{
    "links": {
        "self": "http://www.neowsapp.com/rest/v1/neo/3766363?api_key=iIulBulltgU6a56xZRHN4H3l9WmuAYTsLGpBGhQ2"
    },
    "id": "3766363",
    "neo_reference_id": "3766363",
    "name": "(2017 AH5)",
    "designation": "2017 AH5",
    "nasa_jpl_url": "http://ssd.jpl.nasa.gov/sbdb.cgi?sstr=3766363",
    "absolute_magnitude_h": 24.3,
    "estimated_diameter": {
        "kilometers": {
            "estimated_diameter_min": 0.0366906138,
            "estimated_diameter_max": 0.0820427065
        },
        "meters": {
            "estimated_diameter_min": 36.6906137531,
            "estimated_diameter_max": 82.0427064882
        },
        "miles": {
            "estimated_diameter_min": 0.0227984834,
            "estimated_diameter_max": 0.0509789586
        },
        "feet": {
            "estimated_diameter_min": 120.3760332259,
            "estimated_diameter_max": 269.1689931548
        }
    },
    "is_potentially_hazardous_asteroid": false,
    "close_approach_data": [
        {
            "close_approach_date": "2016-12-26",
            "close_approach_date_full": "2016-Dec-26 09:36",
            "epoch_date_close_approach": 1482744960000,
            "relative_velocity": {
                "kilometers_per_second": "21.0817497072",
                "kilometers_per_hour": "75894.2989458725",
                "miles_per_hour": "47157.7659200062"
            },
            "miss_distance": {
                "astronomical": "0.0210183777",
                "lunar": "8.1761489253",
                "kilometers": "3144304.534775499",
                "miles": "1953780.2399159262"
            },
            "orbiting_body": "Earth"
        }
    ],
    "orbital_data": {
        "orbit_id": "2",
        "orbit_determination_date": "2017-04-06 08:21:07",
        "first_observation_date": "2017-01-05",
        "last_observation_date": "2017-01-07",
        "data_arc_in_days": 2,
        "observations_used": 24,
        "orbit_uncertainty": "9",
        "minimum_orbit_intersection": ".020625",
        "jupiter_tisserand_invariant": "3.358",
        "epoch_osculation": "2457759.5",
        "eccentricity": ".7135498402943349",
        "semi_major_axis": "2.10901538197516",
        "inclination": "2.987843078065111",
        "ascending_node_longitude": "70.9881880497243",
        "orbital_period": "1118.711358924869",
        "perihelion_distance": ".604127792988489",
        "perihelion_argument": "297.9777491358629",
        "aphelion_distance": "3.613902970961832",
        "perihelion_time": "2457704.120177120535",
        "mean_anomaly": "17.8211618909166",
        "mean_motion": ".3217988242704319",
        "equinox": "J2000",
        "orbit_class": {
            "orbit_class_type": "APO",
            "orbit_class_description": "Near-Earth asteroid orbits which cross the Earth’s orbit similar to that of 1862 Apollo",
            "orbit_class_range": "a (semi-major axis) > 1.0 AU; q (perihelion) < 1.017 AU"
        }
    },
    "is_sentry_object": false
}